{
  "type": "FeatureCollection",
  "features": [
    {
      "type": "Feature",
      "properties": {
        "norad_id": 33887,
        "name": "IRIDIUM 33 DEB",
        "group": "iridium-33-debris",
        "lat": -47.48171595586192,
        "lon": -178.7955059298975,
        "alt_km": 772.0742677275084,
        "timestamp": "2025-12-27T04:40:45.889845+00:00",
        "meta_object_name": "IRIDIUM 33 DEB",
        "meta_object_id": "1997-051BG",
        "meta_epoch": "2025-12-26T22:42:17.748000",
        "meta_mean_motion": 14.37234028,
        "meta_eccentricity": 0.00060023,
        "meta_inclination": 86.3043,
        "meta_ra_of_asc_node": 357.2696,
        "meta_arg_of_pericenter": 173.5573,
        "meta_mean_anomaly": 206.7175,
        "meta_ephemeris_type": 0,
        "meta_classification_type": "U",
        "meta_norad_cat_id": 33887,
        "meta_element_set_no": 999,
        "meta_rev_at_epoch": 88369,
        "meta_bstar": 0.00017864907,
        "meta_mean_motion_dot": 5.52e-06,
        "meta_mean_motion_ddot": 0,
        "tle_line1": "1 33887U 97051BG  25360.94603875  .00000552  00000+0  17865-3 0  9990",
        "tle_line2": "2 33887  86.3043 357.2696 0006002 173.5573 206.7175 14.37234028883698"
      },
      "geometry": {
        "type": "Point",
        "coordinates": [
          -178.7955059298975,
          -47.48171595586192
        ]
      }
    },
    {
      "type": "Feature",
      "properties": {
        "norad_id": 33953,
        "name": "IRIDIUM 33 DEB",
        "group": "iridium-33-debris",
        "lat": -53.350642344456844,
        "lon": 42.62748994599802,
        "alt_km": 719.5061101215915,
        "timestamp": "2025-12-27T04:40:45.889855+00:00",
        "meta_object_name": "IRIDIUM 33 DEB",
        "meta_object_id": "1997-051BN",
        "meta_epoch": "2025-12-26T14:46:02.739936",
        "meta_mean_motion": 14.55451821,
        "meta_eccentricity": 0.0017451,
        "meta_inclination": 86.3834,
        "meta_ra_of_asc_node": 47.7557,
        "meta_arg_of_pericenter": 60.1468,
        "meta_mean_anomaly": 91.3298,
        "meta_ephemeris_type": 0,
        "meta_classification_type": "U",
        "meta_norad_cat_id": 33953,
        "meta_element_set_no": 999,
        "meta_rev_at_epoch": 88505,
        "meta_bstar": 0.0011159,
        "meta_mean_motion_dot": 4.881e-05,
        "meta_mean_motion_ddot": 0,
        "tle_line1": "1 33953U 97051BN  25360.61530949  .00004881  00000+0  11159-2 0  9997",
        "tle_line2": "2 33953  86.3834  47.7557 0017451  60.1468  91.3298 14.55451821885059"
      },
      "geometry": {
        "type": "Point",
        "coordinates": [
          42.62748994599802,
          -53.350642344456844
        ]
      }
    },
    {
      "type": "Feature",
      "properties": {
        "norad_id": 33960,
        "name": "IRIDIUM 33 DEB",
        "group": "iridium-33-debris",
        "lat": -57.92197915077642,
        "lon": 108.69735414521524,
        "alt_km": 622.3814932311498,
        "timestamp": "2025-12-27T04:40:45.889866+00:00",
        "meta_object_name": "IRIDIUM 33 DEB",
        "meta_object_id": "1997-051BV",
        "meta_epoch": "2025-12-26T19:47:13.318944",
        "meta_mean_motion": 14.85911573,
        "meta_eccentricity": 0.00069591,
        "meta_inclination": 86.2536,
        "meta_ra_of_asc_node": 282.8713,
        "meta_arg_of_pericenter": 37.5065,
        "meta_mean_anomaly": 19.8748,
        "meta_ephemeris_type": 0,
        "meta_classification_type": "U",
        "meta_norad_cat_id": 33960,
        "meta_element_set_no": 999,
        "meta_rev_at_epoch": 89076,
        "meta_bstar": 0.0032209433,
        "meta_mean_motion_dot": 0.00028197,
        "meta_mean_motion_ddot": 0,
        "tle_line1": "1 33960U 97051BV  25360.82445971  .00028197  00000+0  32209-2 0  9993",
        "tle_line2": "2 33960  86.2536 282.8713 0006959  37.5065  19.8748 14.85911573890760"
      },
      "geometry": {
        "type": "Point",
        "coordinates": [
          108.69735414521524,
          -57.92197915077642
        ]
      }
    },
    {
      "type": "Feature",
      "properties": {
        "norad_id": 33966,
        "name": "IRIDIUM 33 DEB",
        "group": "iridium-33-debris",
        "lat": 46.81334475887048,
        "lon": -144.03292334990428,
        "alt_km": 716.5667236284607,
        "timestamp": "2025-12-27T04:40:45.889877+00:00",
        "meta_object_name": "IRIDIUM 33 DEB",
        "meta_object_id": "1997-051CB",
        "meta_epoch": "2025-12-26T15:23:33.736416",
        "meta_mean_motion": 14.49646818,
        "meta_eccentricity": 0.0008881,
        "meta_inclination": 86.391,
        "meta_ra_of_asc_node": 40.0602,
        "meta_arg_of_pericenter": 145.5538,
        "meta_mean_anomaly": 340.1487,
        "meta_ephemeris_type": 0,
        "meta_classification_type": "U",
        "meta_norad_cat_id": 33966,
        "meta_element_set_no": 999,
        "meta_rev_at_epoch": 88643,
        "meta_bstar": 0.00051075,
        "meta_mean_motion_dot": 1.983e-05,
        "meta_mean_motion_ddot": 0,
        "tle_line1": "1 33966U 97051CB  25360.64136269  .00001983  00000+0  51075-3 0  9993",
        "tle_line2": "2 33966  86.3910  40.0602 0008881 145.5538 340.1487 14.49646818886431"
      },
      "geometry": {
        "type": "Point",
        "coordinates": [
          -144.03292334990428,
          46.81334475887048
        ]
      }
    },
    {
      "type": "Feature",
      "properties": {
        "norad_id": 34071,
        "name": "IRIDIUM 33 DEB",
        "group": "iridium-33-debris",
        "lat": -13.06559852251602,
        "lon": -167.6058444815573,
        "alt_km": 735.7005828476676,
        "timestamp": "2025-12-27T04:40:45.889887+00:00",
        "meta_object_name": "IRIDIUM 33 DEB",
        "meta_object_id": "1997-051CE",
        "meta_epoch": "2025-12-26T22:49:20.921376",
        "meta_mean_motion": 14.4952889,
        "meta_eccentricity": 0.00097956,
        "meta_inclination": 86.3453,
        "meta_ra_of_asc_node": 11.6503,
        "meta_arg_of_pericenter": 69.548,
        "meta_mean_anomaly": 290.6775,
        "meta_ephemeris_type": 0,
        "meta_classification_type": "U",
        "meta_norad_cat_id": 34071,
        "meta_element_set_no": 999,
        "meta_rev_at_epoch": 88540,
        "meta_bstar": 0.00073767559,
        "meta_mean_motion_dot": 2.849e-05,
        "meta_mean_motion_ddot": 0,
        "tle_line1": "1 34071U 97051CE  25360.95093659  .00002849  00000+0  73768-3 0  9995",
        "tle_line2": "2 34071  86.3453  11.6503 0009795  69.5480 290.6775 14.49528890885405"
      },
      "geometry": {
        "type": "Point",
        "coordinates": [
          -167.6058444815573,
          -13.06559852251602
        ]
      }
    },
    {
      "type": "Feature",
      "properties": {
        "norad_id": 34077,
        "name": "IRIDIUM 33 DEB",
        "group": "iridium-33-debris",
        "lat": 62.932598142049066,
        "lon": -141.9686381215841,
        "alt_km": 674.447288181892,
        "timestamp": "2025-12-27T04:40:45.889898+00:00",
        "meta_object_name": "IRIDIUM 33 DEB",
        "meta_object_id": "1997-051CL",
        "meta_epoch": "2025-12-26T15:37:29.746272",
        "meta_mean_motion": 14.65017306,
        "meta_eccentricity": 0.00085863,
        "meta_inclination": 86.3849,
        "meta_ra_of_asc_node": 45.3778,
        "meta_arg_of_pericenter": 353.3839,
        "meta_mean_anomaly": 136.4278,
        "meta_ephemeris_type": 0,
        "meta_classification_type": "U",
        "meta_norad_cat_id": 34077,
        "meta_element_set_no": 999,
        "meta_rev_at_epoch": 88536,
        "meta_bstar": 0.0015938019,
        "meta_mean_motion_dot": 8.57e-05,
        "meta_mean_motion_ddot": 0,
        "tle_line1": "1 34077U 97051CL  25360.65103873  .00008570  00000+0  15938-2 0  9999",
        "tle_line2": "2 34077  86.3849  45.3778 0008586 353.3839 136.4278 14.65017306885360"
      },
      "geometry": {
        "type": "Point",
        "coordinates": [
          -141.9686381215841,
          62.932598142049066
        ]
      }
    },
    {
      "type": "Feature",
      "properties": {
        "norad_id": 34079,
        "name": "IRIDIUM 33 DEB",
        "group": "iridium-33-debris",
        "lat": 4.87892406997978,
        "lon": 2.3955337298928194,
        "alt_km": 617.830903990518,
        "timestamp": "2025-12-27T04:40:45.889909+00:00",
        "meta_object_name": "IRIDIUM 33 DEB",
        "meta_object_id": "1997-051CN",
        "meta_epoch": "2025-12-27T00:04:28.360992",
        "meta_mean_motion": 14.83925003,
        "meta_eccentricity": 0.00037586,
        "meta_inclination": 86.3778,
        "meta_ra_of_asc_node": 2.173,
        "meta_arg_of_pericenter": 312.3026,
        "meta_mean_anomaly": 108.3555,
        "meta_ephemeris_type": 0,
        "meta_classification_type": "U",
        "meta_norad_cat_id": 34079,
        "meta_element_set_no": 999,
        "meta_rev_at_epoch": 89189,
        "meta_bstar": 0.0023086983,
        "meta_mean_motion_dot": 0.00019238,
        "meta_mean_motion_ddot": 0,
        "tle_line1": "1 34079U 97051CN  25361.00310603  .00019238  00000+0  23087-2 0  9999",
        "tle_line2": "2 34079  86.3778   2.1730 0003758 312.3026 108.3555 14.83925003891894"
      },
      "geometry": {
        "type": "Point",
        "coordinates": [
          2.3955337298928194,
          4.87892406997978
        ]
      }
    }
  ]
}